{"features":[{"geometry":{"coordinates":[-85.35895740874057,10.756104957005427],"crs":null,"type":"Point"},"id":1,"properties":{"canton":"Liberia","coddistrit":"50105","distrito":"Curubande","globalid":"{37651C74-B4CC-487E-8C5C-3A6F52FC549F}","objectid":1,"observacio":"PAI","provincia":"Guanacaste","puntox":351364.1094,"puntoy":1189696.6503,"region":"Chorotega","subestacio":"Pailas"},"type":"Feature"},{"geometry":{"coordinates":[-83.42196117173603,8.943493254509862],"crs":null,"type":"Point"},"id":2,"properties":{"canton":"Osa","coddistrit":"60502","distrito":"Palmar","globalid":"{6DE651F0-75E2-4057-A687-416DAD1B367A}","objectid":2,"observacio":"PAL","provincia":"Puntarenas","puntox":563565.006,"puntoy":988950.5848,"region":"Huetar Brunca","subestacio":"Palmar"},"type":"Feature"},{"geometry":{"coordinates":[-85.71491270102499,10.507231588011937],"crs":null,"type":"Point"},"id":3,"properties":{"canton":"Carrillo","coddistrit":"50303","distrito":"Sandillal","globalid":"{C01FBA7E-0A2E-4768-97E4-3051E4F01282}","objectid":3,"observacio":"NCO","provincia":"Guanacaste","puntox":312269.6436,"puntoy":1162354.3696,"region":"Chorotega","subestacio":"Nuevo Colon"},"type":"Feature"},{"geometry":{"coordinates":[-84.37128049089002,10.087348053197301],"crs":null,"type":"Point"},"id":4,"properties":{"canton":"Naranjo","coddistrit":"20601","distrito":"Naranjo","globalid":"{F1195B43-2675-460E-8A6A-28AA4B077806}","objectid":4,"observacio":"NAR","provincia":"Alajuela","puntox":459308.0753,"puntoy":1115426.6794,"region":"Central","subestacio":"Naranjo"},"type":"Feature"},{"geometry":{"coordinates":[-83.10224059729228,9.994481001088591],"crs":null,"type":"Point"},"id":5,"properties":{"canton":"Limón","coddistrit":"70103","distrito":"Rio Blanco","globalid":"{703FD122-2DB8-4A5C-B962-1950BA2707EE}","objectid":5,"observacio":"MOI","provincia":"Limón","puntox":598425.7277,"puntoy":1105266.8363,"region":"Huetar Brunca","subestacio":"Moin"},"type":"Feature"},{"geometry":{"coordinates":[-85.2676138765758,10.725726957149742],"crs":null,"type":"Point"},"id":6,"properties":{"canton":"Bagaces","coddistrit":"50403","distrito":"Mogote","globalid":"{BDB776CE-96D9-4D6F-BED8-41604F2BFCD5}","objectid":6,"observacio":"MOG","provincia":"Guanacaste","puntox":361342.5446,"puntoy":1186293.2829,"region":"Chorotega","subestacio":"Mogote"},"type":"Feature"},{"geometry":{"coordinates":[-85.4457457850183,10.615366757246374],"crs":null,"type":"Point"},"id":7,"properties":{"canton":"Liberia","coddistrit":"50101","distrito":"Liberia","globalid":"{B3AC01F5-375A-48B0-B1D0-DB5935ED411E}","objectid":7,"observacio":"LIB","provincia":"Guanacaste","puntox":341796.9519,"puntoy":1174169.5231,"region":"Chorotega","subestacio":"Liberia"},"type":"Feature"},{"geometry":{"coordinates":[-84.35933052559083,9.928721384286103],"crs":null,"type":"Point"},"id":8,"properties":{"canton":"Alajuela","coddistrit":"20111","distrito":"Turrucares","globalid":"{0C21D958-F29F-44A3-B3B3-F8AF967A99B3}","objectid":8,"observacio":"GAR","provincia":"Alajuela","puntox":460598.7121,"puntoy":1097881.2971,"region":"Central","subestacio":"La Garita"},"type":"Feature"},{"geometry":{"coordinates":[-83.75521408514517,10.262401399895063],"crs":null,"type":"Point"},"id":9,"properties":{"canton":"Pococi","coddistrit":"70204","distrito":"Roxana","globalid":"{FAF80C46-F149-47FA-A515-D52835429E58}","objectid":9,"observacio":"LEE","provincia":"Limón","puntox":526814.037,"puntoy":1134774.4302,"region":"Huetar Brunca","subestacio":"Leesville"},"type":"Feature"},{"geometry":{"coordinates":[-85.5694144789076,10.266454308131548],"crs":null,"type":"Point"},"id":10,"properties":{"canton":"Santa Cruz","coddistrit":"50301","distrito":"Santa Cruz","globalid":"{CAF772F2-70CC-4CCA-A800-D31CE3D0CF7B}","objectid":10,"observacio":"GUA","provincia":"Guanacaste","puntox":328069.6285,"puntoy":1135631.8946,"region":"Chorotega","subestacio":"Guayabal"},"type":"Feature"},{"geometry":{"coordinates":[-84.16600079034203,9.964701347633852],"crs":null,"type":"Point"},"id":11,"properties":{"canton":"San Jose","coddistrit":"10107","distrito":"Uruca","globalid":"{08938558-909B-4031-BDC7-13BA5EB5A54F}","objectid":11,"observacio":"CAJ","provincia":"San Jose","puntox":481799.9497,"puntoy":1101843.8433,"region":"Central","subestacio":"La Caja"},"type":"Feature"},{"geometry":{"coordinates":[-84.66253664370771,9.968369997879078],"crs":null,"type":"Point"},"id":12,"properties":{"canton":"Esparza","coddistrit":"60202","distrito":"San Juan Grande","globalid":"{B25A1E3B-0950-4B0A-88A7-2C7F9A7EC695}","objectid":12,"observacio":"JUA","provincia":"Puntarenas","puntox":427358.9571,"puntoy":1102317.6363,"region":"Chorotega","subestacio":"Juanilama"},"type":"Feature"},{"geometry":{"coordinates":[-84.1200218823344,9.982889016480835],"crs":null,"type":"Point"},"id":13,"properties":{"canton":"Heredia","coddistrit":"40101","distrito":"San Francisco","globalid":"{6D064FDC-D7FE-462E-BA0A-5FB17774C3CB}","objectid":13,"observacio":"HER","provincia":"Heredia","puntox":486841.8284,"puntoy":1103853.1715,"region":"Central","subestacio":"Heredia"},"type":"Feature"},{"geometry":{"coordinates":[-84.76094064469385,10.045590239485486],"crs":null,"type":"Point"},"id":14,"properties":{"canton":"Montes de Oro","coddistrit":"60403","distrito":"San Isidro","globalid":"{78B3DA75-62A0-4B61-94F6-DBBE99701014}","objectid":14,"observacio":"GAB","provincia":"Puntarenas","puntox":416588.9513,"puntoy":1110881.8417,"region":"Chorotega","subestacio":"Garabito"},"type":"Feature"},{"geometry":{"coordinates":[-85.47242734793096,10.417382078147288],"crs":null,"type":"Point"},"id":15,"properties":{"canton":"Carrillo","coddistrit":"50501","distrito":"Filadelfia","globalid":"{B2ACC642-1972-4BFC-8F29-7EAFE549055E}","objectid":15,"observacio":"FIL","provincia":"Guanacaste","puntox":338773.9512,"puntoy":1152279.2768,"region":"Chorotega","subestacio":"Filadelfia"},"type":"Feature"},{"geometry":{"coordinates":[-84.22547385108885,9.998109513534391],"crs":null,"type":"Point"},"id":16,"properties":{"canton":"Alajuela","coddistrit":"20104","distrito":"San Antonio","globalid":"{00176EA9-4B6A-4BB8-8BFF-521F0B2160B7}","objectid":16,"observacio":"COC","provincia":"Alajuela","puntox":475281.7887,"puntoy":1105542.5433,"region":"Central","subestacio":"El Coco"},"type":"Feature"},{"geometry":{"coordinates":[-84.05480456073174,9.889173871503553],"crs":null,"type":"Point"},"id":17,"properties":{"canton":"Desamparados","coddistrit":"10312","distrito":"Gravilias","globalid":"{E770F162-EDA2-4FB0-99B5-D2CC67B4B287}","objectid":17,"observacio":"DES","provincia":"San Jose","puntox":493990.1874,"puntoy":1093486.7411,"region":"Central","subestacio":"Desamparados"},"type":"Feature"},{"geometry":{"coordinates":[-85.0778236101884,10.471304245730895],"crs":null,"type":"Point"},"id":18,"properties":{"canton":"Cañas","coddistrit":"50601","distrito":"Cañas","globalid":"{D80CCC22-7C8B-4090-B16F-D23DCEB9EAA2}","objectid":18,"observacio":"COR","provincia":"Guanacaste","puntox":382007.8643,"puntoy":1158070.1895,"region":"Chorotega","subestacio":"Corobici"},"type":"Feature"},{"geometry":{"coordinates":[-83.88773382402711,9.83861530286333],"crs":null,"type":"Point"},"id":19,"properties":{"canton":"Cartago","coddistrit":"30109","distrito":"Dulce Nombre","globalid":"{8021470E-EAB2-4376-8822-911F2E9399C2}","objectid":19,"observacio":"COV","provincia":"Cartago","puntox":512313.9516,"puntoy":1087896.7732,"region":"Huetar Brunca","subestacio":"Concavas"},"type":"Feature"},{"geometry":{"coordinates":[-85.1724719457999,10.22548277888836],"crs":null,"type":"Point"},"id":20,"properties":{"canton":"Abangares","coddistrit":"50704","distrito":"Colorado","globalid":"{A26FF811-2F80-4A0C-9E49-BD94B9194B42}","objectid":20,"observacio":"COD","provincia":"Guanacaste","puntox":371545.2111,"puntoy":1130914.1779,"region":"Chorotega","subestacio":"Colorado"},"type":"Feature"},{"geometry":{"coordinates":[-84.43000057482175,10.352452040638926],"crs":null,"type":"Point"},"id":21,"properties":{"canton":"San Carlos","coddistrit":"21001","distrito":"Quesada","globalid":"{26895DC1-283F-4CC8-A338-DB6E73C815F6}","objectid":21,"observacio":"CQU","provincia":"Alajuela","puntox":452911.2595,"puntoy":1144755.3485,"region":"Central","subestacio":"Ciudad Quesada"},"type":"Feature"},{"geometry":{"coordinates":[-84.1966817737577,10.286294715830378],"crs":null,"type":"Point"},"id":22,"properties":{"canton":"Alajuela","coddistrit":"20114","distrito":"Sarapiqui","globalid":"{9EB6D196-C564-445C-93B8-ECD0F6ABB278}","objectid":22,"observacio":"CAR","provincia":"Alajuela","puntox":478457.4707,"puntoy":1137413.3148,"region":"Central","subestacio":"Cariblanco"},"type":"Feature"},{"geometry":{"coordinates":[-84.71384776317798,9.991771280545313],"crs":null,"type":"Point"},"id":23,"properties":{"canton":"Puntarenas","coddistrit":"60108","distrito":"Barranca","globalid":"{81C28A9A-DEEA-4414-956B-AFDD8B783C4A}","objectid":23,"observacio":"BAR","provincia":"Puntarenas","puntox":421738.4585,"puntoy":1104917.6172,"region":"Chorotega","subestacio":"Barranca"},"type":"Feature"},{"geometry":{"coordinates":[-85.00029043917448,10.472741057736414],"crs":null,"type":"Point"},"id":24,"properties":{"canton":"Tilaran","coddistrit":"50804","distrito":"Santa Rosa","globalid":"{6E8888BD-ABC3-4F19-82C9-DAA091610839}","objectid":24,"observacio":"ARE","provincia":"Guanacaste","puntox":390496.9849,"puntoy":1158201.1567,"region":"Chorotega","subestacio":"Arenal"},"type":"Feature"},{"geometry":{"coordinates":[-83.64058976256828,9.916834533496349],"crs":null,"type":"Point"},"id":25,"properties":{"canton":"Turrialba","coddistrit":"30506","distrito":"Pavones","globalid":"{94C526D7-1F99-4DD1-80F7-2161B8957233}","objectid":25,"observacio":"ANG","provincia":"Cartago","puntox":539412.136,"puntoy":1096566.771,"region":"Huetar Brunca","subestacio":"Angostura"},"type":"Feature"},{"geometry":{"coordinates":[-84.11044442273182,9.912787158712343],"crs":null,"type":"Point"},"id":26,"properties":{"canton":"Alajuelita","coddistrit":"11005","distrito":"San Felipe","globalid":"{C8427B02-6BD1-4C25-8140-85808B8DB25C}","objectid":26,"observacio":"ALA","provincia":"San Jose","puntox":487889.2778,"puntoy":1096099.7832,"region":"Central","subestacio":"Alajuelita"},"type":"Feature"},{"geometry":{"coordinates":[-83.75394130991916,9.87026653269994],"crs":null,"type":"Point"},"id":27,"properties":{"canton":"Jimenez","coddistrit":"30402","distrito":"Tucurrique","globalid":"{BE82D4E9-42C1-49AE-BB43-E23CE7F4EA44}","objectid":27,"observacio":"CAC","provincia":"Cartago","puntox":526986.083,"puntoy":1091405.1602,"region":"Huetar Brunca","subestacio":"Cachi"},"type":"Feature"},{"geometry":{"coordinates":[-84.17279127549419,9.996799472773988],"crs":null,"type":"Point"},"id":28,"properties":{"canton":"Belen","coddistrit":"40702","distrito":"La Ribera","globalid":"{4D09A15A-45EA-4428-A9EE-EC797F140E73}","objectid":28,"observacio":"BEL","provincia":"Heredia","puntox":481057.2861,"puntoy":1105394.181,"region":"Central","subestacio":"Belen"},"type":"Feature"},{"geometry":{"coordinates":[-85.12363469890957,10.423509674916033],"crs":null,"type":"Point"},"id":29,"properties":{"canton":"Cañas","coddistrit":"50601","distrito":"Cañas","globalid":"{431A4364-CF53-42B1-9682-F74A2D6B2337}","objectid":29,"observacio":"CAS","provincia":"Guanacaste","puntox":376973.4083,"puntoy":1152800.6727,"region":"Chorotega","subestacio":"Cañas"},"type":"Feature"},{"geometry":{"coordinates":[-82.87298297251046,9.731980454871369],"crs":null,"type":"Point"},"id":30,"properties":{"canton":"Talamanca","coddistrit":"70403","distrito":"Cahuita","globalid":"{27BDBC47-1A1E-4F75-9E92-2811E96767BD}","objectid":30,"observacio":"CAH","provincia":"Limón","puntox":623660.9247,"puntoy":1076307.1897,"region":"Huetar Brunca","subestacio":"Cahuita"},"type":"Feature"},{"geometry":{"coordinates":[-83.55689200302857,10.08276243726129],"crs":null,"type":"Point"},"id":31,"properties":{"canton":"Siquirres","coddistrit":"70301","distrito":"Siquirres","globalid":"{3DA037AB-C7AA-4FBD-85C2-2BECD85A5E57}","objectid":31,"observacio":"REV","provincia":"Limon","puntox":548565.6497,"puntoy":1114929.4545,"region":"Huetar Brunca","subestacio":"Reventazon"},"type":"Feature"},{"geometry":{"coordinates":[-83.62309971262383,9.947946462926136],"crs":null,"type":"Point"},"id":32,"properties":{"canton":"Turrialba","coddistrit":"30506","distrito":"Pavones","globalid":"{00B0A7C1-9A3E-4B48-881D-D41BE0F3C56B}","objectid":32,"observacio":"TOT","provincia":"Cartago","puntox":541326.1554,"puntoy":1100009.83,"region":"Huetar Brunca","subestacio":"Torito"},"type":"Feature"},{"geometry":{"coordinates":[-84.25010654279463,10.335320110173798],"crs":null,"type":"Point"},"id":33,"properties":{"canton":"San Carlos","coddistrit":"21005","distrito":"Venecia","globalid":"{54CDB0EC-35AC-4828-B98C-5F292376157B}","objectid":33,"observacio":"VEN","provincia":"Alajuela","puntox":472609.9837,"puntoy":1142839.5776,"region":"Central","subestacio":"Venecia"},"type":"Feature"},{"geometry":{"coordinates":[-83.52667549392532,10.099043099979204],"crs":null,"type":"Point"},"id":34,"properties":{"canton":"Siquirres","coddistrit":"70301","distrito":"Siquirres","globalid":"{7FECBED9-7485-4177-B3AD-B4BB939D006F}","objectid":34,"observacio":"TRA","provincia":"Limón","puntox":551874.8864,"puntoy":1116734.7525,"region":"Huetar Brunca","subestacio":"Trapiche"},"type":"Feature"},{"geometry":{"coordinates":[-85.19325565365948,10.701492716813831],"crs":null,"type":"Point"},"id":35,"properties":{"canton":"Bagaces","coddistrit":"50402","distrito":"Fortuna","globalid":"{F5F7BF03-FF14-4945-9493-1A2D664C255A}","objectid":35,"observacio":"MIR","provincia":"Guanacaste","puntox":369466.9616,"puntoy":1183579.8883,"region":"Chorotega","subestacio":"Miravalles"},"type":"Feature"},{"geometry":{"coordinates":[-83.99656919488059,9.91028268425253],"crs":null,"type":"Point"},"id":36,"properties":{"canton":"La Union","coddistrit":"30303","distrito":"San Juan","globalid":"{35C279E5-83E5-40A6-850D-10BF230024BF}","objectid":36,"observacio":"EST","provincia":"Cartago","puntox":500376.5618,"puntoy":1095820.811,"region":"Central","subestacio":"El Este"},"type":"Feature"},{"geometry":{"coordinates":[-84.21289733055855,9.959517583970921],"crs":null,"type":"Point"},"id":37,"properties":{"canton":"Santa Ana","coddistrit":"10903","distrito":"Pozos","globalid":"{10E1F388-FE1F-4C56-BD9B-A801E5219BE5}","objectid":37,"observacio":"LIN","provincia":"San Jose","puntox":476657.8088,"puntoy":1101273.4672,"region":"Central","subestacio":"Lindora"},"type":"Feature"},{"geometry":{"coordinates":[-84.09053677900832,9.952220776832897],"crs":null,"type":"Point"},"id":38,"properties":{"canton":"Tibas","coddistrit":"11305","distrito":"Colima","globalid":"{4C90AA2B-45BE-4D46-A84C-EE52763DE095}","objectid":38,"observacio":"COL","provincia":"San Jose","puntox":490073.4851,"puntoy":1100460.3434,"region":"Central","subestacio":"Colima"},"type":"Feature"},{"geometry":{"coordinates":[-85.12584880576755,9.707036973188119],"crs":null,"type":"Point"},"id":39,"properties":{"canton":"Puntarenas","coddistrit":"60111","distrito":"Cobano","globalid":"{8124B437-EBE4-4257-8047-EBB3FE90A030}","objectid":39,"observacio":"COB","provincia":"Puntarenas","puntox":376458.8781,"puntoy":1073547.2309,"region":"Chorotega","subestacio":"Cobano"},"type":"Feature"},{"geometry":{"coordinates":[-84.99627867667034,10.48199527109183],"crs":null,"type":"Point"},"id":40,"properties":{"canton":"Tilaran","coddistrit":"50801","distrito":"Santa Rosa","globalid":"{174C1837-97DA-4277-941E-AAA482247611}","objectid":40,"observacio":"TAN","provincia":"Guanacaste","puntox":390939.4356,"puntoy":1159223.4272,"region":"Chorotega","subestacio":"Tanque"},"type":"Feature"},{"geometry":{"coordinates":[-84.11862082543153,9.9320620365281],"crs":null,"type":"Point"},"id":41,"properties":{"canton":"San Jose","coddistrit":"10108","distrito":"Mata Redonda","globalid":"{6F1BC4B2-4DB3-4CCA-8817-E22E537837DF}","objectid":41,"observacio":"ANN","provincia":"San Jose","puntox":486993.4292,"puntoy":1098231.8227,"region":"Central","subestacio":"Anonos"},"type":"Feature"},{"geometry":{"coordinates":[-83.67307104648185,9.895804778824434],"crs":null,"type":"Point"},"id":42,"properties":{"canton":"Turrialba","coddistrit":"30501","distrito":"Turrialba","globalid":"{647D7371-EE27-45DF-A393-5031E50138EC}","objectid":42,"observacio":"TUR","provincia":"Cartago","puntox":535852.5896,"puntoy":1094237.2467,"region":"Huetar Brunca","subestacio":"Turrialba"},"type":"Feature"},{"geometry":{"coordinates":[-84.2579402474187,10.275032047098081],"crs":null,"type":"Point"},"id":43,"properties":{"canton":"Grecia","coddistrit":"20306","distrito":"Rio Cuarto","globalid":"{A10A15BB-DD56-4569-A389-9D0A855CFE51}","objectid":43,"observacio":"TOR","provincia":"Alajuela","puntox":471746.7152,"puntoy":1136172.4101,"region":"Central","subestacio":"Toro"},"type":"Feature"},{"geometry":{"coordinates":[-84.0553698773894,9.98024872904098],"crs":null,"type":"Point"},"id":44,"properties":{"canton":"Santo Domingo","coddistrit":"40303","distrito":"San Miguel","globalid":"{59126981-31E0-4996-BFA3-21C3319814E1}","objectid":44,"observacio":"SMI","provincia":"Heredia","puntox":493929.8546,"puntoy":1103559.2955,"region":"Central","subestacio":"San Miguel"},"type":"Feature"},{"geometry":{"coordinates":[-83.68053566718723,9.361730797211706],"crs":null,"type":"Point"},"id":45,"properties":{"canton":"Perez Zeledon","coddistrit":"11903","distrito":"Daniel Flores","globalid":"{48124470-0DC5-4B71-8EBE-657B5F592DF1}","objectid":45,"observacio":"SIS","provincia":"San Jose","puntox":535089.167,"puntoy":1035170.0442,"region":"Huetar Brunca","subestacio":"San Isidro"},"type":"Feature"},{"geometry":{"coordinates":[-85.26599661213687,10.031665125986747],"crs":null,"type":"Point"},"id":46,"properties":{"canton":"Nandayure","coddistrit":"50902","distrito":"Santa Rita","globalid":"{28421CE8-CDA0-492F-B532-FB9DBA6F0C1B}","objectid":46,"observacio":"SRI","provincia":"Guanacaste","puntox":361213.9182,"puntoy":1109512.1768,"region":"Chorotega","subestacio":"Santa Rita"},"type":"Feature"},{"geometry":{"coordinates":[-85.10327982813273,10.465289068644013],"crs":null,"type":"Point"},"id":47,"properties":{"canton":"Cañas","coddistrit":"50601","distrito":"Cañas","globalid":"{2C818BFA-A85A-4806-96AD-134698A8EA7A}","objectid":47,"observacio":"SAD","provincia":"Guanacaste","puntox":379218.4533,"puntoy":1157414.4335,"region":"Chorotega","subestacio":"Sandillal"},"type":"Feature"},{"geometry":{"coordinates":[-84.98924541300124,10.524171608615687],"crs":null,"type":"Point"},"id":48,"properties":{"canton":"Tilaran","coddistrit":"50801","distrito":"Santa Rosa","globalid":"{907AAC06-7911-4CBC-9D5B-AB4C6F6D7B2C}","objectid":48,"observacio":"TEJ","provincia":"Guanacaste","puntox":391724.1035,"puntoy":1163886.3626,"region":"Chorotega","subestacio":"Tejona"},"type":"Feature"},{"geometry":{"coordinates":[-83.95182549539788,9.823784353613473],"crs":null,"type":"Point"},"id":49,"properties":{"canton":"El Guarco","coddistrit":"30802","distrito":"San Isidro","globalid":"{0DCC6832-809C-43E5-964A-C9EDB376127E}","objectid":49,"observacio":"TER","provincia":"Cartago","puntox":505284.4762,"puntoy":1086254.8416,"region":"Huetar Brunca","subestacio":"Tejar"},"type":"Feature"},{"geometry":{"coordinates":[-84.11730899292147,9.829920013867405],"crs":null,"type":"Point"},"id":50,"properties":{"canton":"Aserri","coddistrit":"10602","distrito":"Tarbaca","globalid":"{9F93E89D-F413-47D6-9D36-C198AB993853}","objectid":50,"observacio":"TAR","provincia":"San Jose","puntox":487133.323,"puntoy":1086935.2585,"region":"Central","subestacio":"Tarbaca"},"type":"Feature"},{"geometry":{"coordinates":[-84.04260264998757,9.947570620068175],"crs":null,"type":"Point"},"id":52,"properties":{"canton":"Montes de Oca","coddistrit":"11503","distrito":"Mercedes","globalid":"{1C21B4D4-49B6-4A0D-A5B0-E22F53819ED0}","objectid":52,"observacio":"SAB","provincia":"San Jose","puntox":495329.1312,"puntoy":1099945.0061,"region":"Central","subestacio":"Sabanilla"},"type":"Feature"},{"geometry":{"coordinates":[-83.84180779176785,9.776110000229203],"crs":null,"type":"Point"},"id":53,"properties":{"canton":"Paraiso","coddistrit":"30203","distrito":"Orosi","globalid":"{6B90D3D1-74B2-42E6-8BDC-D671E0A0F7A2}","objectid":53,"observacio":"RMA","provincia":"Cartago","puntox":517354.4894,"puntoy":1080985.9866,"region":"Huetar Brunca","subestacio":"Rio Macho"},"type":"Feature"},{"geometry":{"coordinates":[-83.06948419796689,8.685285275403535],"crs":null,"type":"Point"},"id":54,"properties":{"canton":"Golfito","coddistrit":"60703","distrito":"Guaycara","globalid":"{8A34FE0E-A919-415A-A6B6-0DDC8E428CCA}","objectid":54,"observacio":"RCL","provincia":"Puntarenas","puntox":602399.1791,"puntoy":960471.3335,"region":"Huetar Brunca","subestacio":"Rio Claro"},"type":"Feature"},{"geometry":{"coordinates":[-84.28413706853993,10.02588462501658],"crs":null,"type":"Point"},"id":55,"properties":{"canton":"Poas","coddistrit":"20804","distrito":"Carrillos","globalid":"{6C08EC1A-96CF-4E5C-992A-82713A7CE155}","objectid":55,"observacio":"POA","provincia":"Alajuela","puntox":468853.1798,"puntoy":1108619.3721,"region":"Central","subestacio":"Poas"},"type":"Feature"},{"geometry":{"coordinates":[-84.19820347397666,9.631728284203337],"crs":null,"type":"Point"},"id":56,"properties":{"canton":"Aserri","coddistrit":"10605","distrito":"Legua","globalid":"{63545CB8-25E3-42E3-9C39-A3BD894AEC9F}","objectid":56,"observacio":"PIR","provincia":"San José","puntox":478247.605,"puntoy":1065020.2871,"region":"Chorotega","subestacio":"Pirris"},"type":"Feature"},{"geometry":{"coordinates":[-84.57519963646426,10.391252684965185],"crs":null,"type":"Point"},"id":57,"properties":{"canton":"San Ramon","coddistrit":"20213","distrito":"Peñas Blancas","globalid":"{BFC83EF9-0520-4764-895A-6F5ADBD794C2}","objectid":57,"observacio":"PBL","provincia":"Alajuela","puntox":437017.941,"puntoy":1149071.9132,"region":"Central","subestacio":"Peñas Blancas"},"type":"Feature"},{"geometry":{"coordinates":[-84.22836121105257,9.554851763057686],"crs":null,"type":"Point"},"id":58,"properties":{"canton":"Parrita","coddistrit":"60901","distrito":"Parrita","globalid":"{8EE84062-A5B7-4CB2-9392-44B7D8BFED19}","objectid":58,"observacio":"PAR","provincia":"Puntarenas","puntox":474932.1506,"puntoy":1056520.1923,"region":"Chorotega","subestacio":"Parrita"},"type":"Feature"},{"geometry":{"coordinates":[-85.60559835467305,10.663713731881279],"crs":null,"type":"Point"},"id":59,"properties":{"canton":"Liberia","coddistrit":"50104","distrito":"Nacascolo","globalid":"{EA4B8906-3E3C-4B9D-9FFF-6C49729D105F}","objectid":59,"observacio":"PAP","provincia":"Guanacaste","puntox":324328.3952,"puntoy":1179604.5366,"region":"Chorotega","subestacio":"Papagayo"},"type":"Feature"},{"geometry":{"coordinates":[-84.53255390285949,9.59458891744261],"crs":null,"type":"Point"},"id":60,"properties":{"canton":"Turrubares","coddistrit":"11605","distrito":"Carara","globalid":"{3BD1FE11-9747-4492-93B5-F807AA349EC0}","objectid":60,"observacio":"JAC","provincia":"San Jose","puntox":441545.6551,"puntoy":1060951.8142,"region":"Chorotega","subestacio":"Jacó"},"type":"Feature"},{"geometry":{"coordinates":[-84.26946445306959,9.99216849953898],"crs":null,"type":"Point"},"id":61,"properties":{"canton":"Alajuela","coddistrit":"20202","distrito":" San José","globalid":"{CCA7BE09-8172-4980-A4F2-C9599A536B49}","objectid":61,"observacio":"COY","provincia":"Alajuela","puntox":470458.5636,"puntoy":1104889.0886,"region":"Central","subestacio":"Coyol"},"type":"Feature"},{"geometry":{"coordinates":[-84.52099185722473,10.255521456670953],"crs":null,"type":"Point"},"id":62,"properties":{"canton":"San Ramón","coddistrit":"20208","distrito":"Angeles","globalid":"{B952DC42-0F31-453E-A744-298358EE9C52}","objectid":62,"observacio":"BAL","provincia":"Alajuela","puntox":442929.2237,"puntoy":1134049.3741,"region":"Central","subestacio":"Balsa"},"type":"Feature"},{"geometry":{"coordinates":[-84.16153388967174,9.935518320258453],"crs":null,"type":"Point"},"id":63,"properties":{"canton":"Escazú","coddistrit":"10203","distrito":"San Rafael","globalid":"{6911958C-F279-4D98-9E03-7CA1479180C5}","objectid":63,"observacio":"ESC","provincia":"San José","puntox":482288.1366,"puntoy":1098616.0527,"region":"Central","subestacio":"Escazú"},"type":"Feature"},{"geometry":{"coordinates":[-84.01602024869545,9.992876486509516],"crs":null,"type":"Point"},"id":64,"properties":{"canton":"Vazquez de Coronado","coddistrit":"11103","distrito":"Dulce Nombre","globalid":"{165F55F6-2B6A-4D5D-96EF-3274D51131EF}","objectid":64,"observacio":"CON","provincia":"San José","puntox":498244.0179,"puntoy":1104955.4241,"region":"Central","subestacio":"Coronado"},"type":"Feature"},{"geometry":{"coordinates":[-83.91562339780421,10.214331654397952],"crs":null,"type":"Point"},"id":67,"properties":{"canton":"Sarapiquí","coddistrit":"41003","distrito":"Horquetas","globalid":"{F768C0DF-5C19-434D-881B-08AD7708D489}","objectid":67,"observacio":"GEN","provincia":"Heredia","puntox":509244.2392,"puntoy":1129448.9715,"region":"Huetar Brunca","subestacio":"General"},"type":"Feature"},{"geometry":{"coordinates":[-83.10019409853706,10.012408060647749],"crs":null,"type":"Point"},"id":68,"properties":{"canton":"Limón","coddistrit":"70102","distrito":"Río Blanco","globalid":"{E933743B-68DF-4AEB-BD38-726F35CB454C}","objectid":68,"observacio":"RBL","provincia":"Limón","puntox":598644.699,"puntoy":1107250.353,"region":"Huetar Brunca","subestacio":"Río Blanco"},"type":"Feature"},{"geometry":{"coordinates":[-84.05825830141607,9.951045555645122],"crs":null,"type":"Point"},"id":69,"properties":{"canton":"Goicoechea","coddistrit":"10803","distrito":"Calle Blancos","globalid":"{1B044D0E-3153-4A4A-A28E-21112E8CAC34}","objectid":69,"observacio":"GUD","provincia":"San José","puntox":493612.619,"puntoy":1100329.5797,"region":"Central","subestacio":"Guadalupe"},"type":"Feature"},{"geometry":{"coordinates":[-84.091867739384,9.948067492093465],"crs":null,"type":"Point"},"id":70,"properties":{"canton":"San José","coddistrit":"10107","distrito":"Uruca","globalid":"{F798AE42-DFE0-4BDA-A531-29506A62BAC8}","objectid":70,"observacio":"URU","provincia":"San José","puntox":489927.4262,"puntoy":1100001.0446,"region":"Central","subestacio":"Uruca"},"type":"Feature"},{"geometry":{"coordinates":[-84.08547582869,9.928693107731865],"crs":null,"type":"Point"},"id":71,"properties":{"canton":"San José","coddistrit":"10103","distrito":"Hospital","globalid":"{BA3CBE7C-8B0D-4573-B47E-05379C8DC593}","objectid":71,"observacio":"LAN","provincia":"San José","puntox":490627.7247,"puntoy":1097858.1209,"region":"Central","subestacio":"Los Ángeles"},"type":"Feature"},{"geometry":{"coordinates":[-84.38104316645348,9.927740110969493],"crs":null,"type":"Point"},"id":72,"properties":{"canton":"Mora","coddistrit":"10705","distrito":"Picagres","globalid":"{4013EE80-7FB1-47EE-8F19-D542581CACC7}","objectid":72,"observacio":"CHU","provincia":"San José","puntox":458217.7017,"puntoy":1097775.4182,"region":"Central","subestacio":"Chucás"},"type":"Feature"},{"geometry":{"coordinates":[-84.06754962333099,9.86719662081198],"crs":null,"type":"Point"},"id":73,"properties":{"canton":"Desamparados","coddistrit":"10304","distrito":"San Rafael Arriba","globalid":"{94CB20B7-11DE-42C9-AFAE-396254C65BF2}","objectid":73,"observacio":"HIG","provincia":"San José","puntox":492592.0074,"puntoy":1091056.3997,"region":"Central","subestacio":"Higuito"},"type":"Feature"},{"geometry":{"coordinates":[-85.2067832105259,10.711846600362238],"crs":null,"type":"Point"},"id":74,"properties":{"canton":"Bagaces","coddistrit":"50402","distrito":"Fortuna","globalid":"{13D7CCE4-9BE1-41E8-86D9-3750CEC7DF58}","objectid":74,"observacio":"FOR","provincia":"Guanacaste","puntox":367991.4248,"puntoy":1184731.0365,"region":"Chorotega","subestacio":"Fortuna"},"type":"Feature"},{"geometry":{"coordinates":[-84.16955141939464,9.991047925387758],"crs":null,"type":"Point"},"id":75,"properties":{"canton":"Belen","coddistrit":"40702","distrito":"La Ribera","globalid":"{1AED8111-5DCA-4B23-BEAE-4B2DA03D3E38}","objectid":75,"observacio":"RIB","provincia":"Heredia","puntox":481412.1457,"puntoy":1104757.8928,"region":"Central","subestacio":"Ribera"},"type":"Feature"}],"properties":{"exceededTransferLimit":false},"type":"FeatureCollection"}
